SENTINEL-1A             
1 39634U 14016A   26191.88747689 -.00000117  00000+0 -15024-4 0  9999
2 39634  98.1787 199.0739 0001436  86.3077 273.8287 14.59199241653477
SENTINEL-1C             
1 62261U 24235A   26191.85830358  .00000084  00000+0  27514-4 0  9996
2 62261  98.1822 198.8297 0001377  89.7243 270.4115 14.59197761 84860
SENTINEL-1D             
1 66315U 25251A   26191.48131250 -.00000023  00000+0  48164-5 0  9992
2 66315  98.1831 198.5130 0001393  92.3759 267.7600 14.59198047 36129
