{"fetched_at":"2026-07-11T06:35:46.122Z","source":"https://celestrak.org/NORAD/elements/gp.php?NAME=SENTINEL&FORMAT=JSON","constellation":"sentinel-1","records":[{"OBJECT_NAME":"SENTINEL-1A","OBJECT_ID":"2014-016A","EPOCH":"2026-07-10T21:17:58.003296","CLASSIFICATION_TYPE":"U","MEAN_MOTION":14.59199241,"ECCENTRICITY":0.0001436,"INCLINATION":98.1787,"RA_OF_ASC_NODE":199.0739,"ARG_OF_PERICENTER":86.3077,"MEAN_ANOMALY":273.8287,"EPHEMERIS_TYPE":0,"NORAD_CAT_ID":39634,"ELEMENT_SET_NO":999,"REV_AT_EPOCH":65347,"BSTAR":-0.000015024,"MEAN_MOTION_DOT":-0.00000117,"MEAN_MOTION_DDOT":0},{"OBJECT_NAME":"SENTINEL-1C","OBJECT_ID":"2024-235A","EPOCH":"2026-07-10T20:35:57.429312","CLASSIFICATION_TYPE":"U","MEAN_MOTION":14.59197761,"ECCENTRICITY":0.0001377,"INCLINATION":98.1822,"RA_OF_ASC_NODE":198.8297,"ARG_OF_PERICENTER":89.7243,"MEAN_ANOMALY":270.4115,"EPHEMERIS_TYPE":0,"NORAD_CAT_ID":62261,"ELEMENT_SET_NO":999,"REV_AT_EPOCH":8486,"BSTAR":0.000027514,"MEAN_MOTION_DOT":8.4e-7,"MEAN_MOTION_DDOT":0},{"OBJECT_NAME":"SENTINEL-1D","OBJECT_ID":"2025-251A","EPOCH":"2026-07-10T11:33:05.400000","CLASSIFICATION_TYPE":"U","MEAN_MOTION":14.59198047,"ECCENTRICITY":0.0001393,"INCLINATION":98.1831,"RA_OF_ASC_NODE":198.513,"ARG_OF_PERICENTER":92.3759,"MEAN_ANOMALY":267.76,"EPHEMERIS_TYPE":0,"NORAD_CAT_ID":66315,"ELEMENT_SET_NO":999,"REV_AT_EPOCH":3612,"BSTAR":0.0000048164,"MEAN_MOTION_DOT":-2.3e-7,"MEAN_MOTION_DDOT":0}]}
